STARLINK-2468           
1 48127U 21027AM  26068.57664683  .00005877  00000+0  21037-3 0  9993
2 48127  53.1616 165.9301 0001315  85.1213 274.9938 15.30203375272496
TEVEL2-8                
1 63239U 25052AF  26068.66815442  .00019130  00000+0  69304-3 0  9993
2 63239  97.4055 324.2923 0008031 124.9191 235.2804 15.28392908 54807
